[{"OBJECT_NAME":"OBJECT H","OBJECT_ID":"2024-092H","EPOCH":"2026-03-09T22:10:57.432576","MEAN_MOTION":14.31801309,"ECCENTRICITY":0.00131217,"INCLINATION":98.6549,"RA_OF_ASC_NODE":188.1402,"ARG_OF_PERICENTER":138.5744,"MEAN_ANOMALY":221.6437,"EPHEMERIS_TYPE":0,"CLASSIFICATION_TYPE":"U","NORAD_CAT_ID":59780,"ELEMENT_SET_NO":999,"REV_AT_EPOCH":9469,"BSTAR":0.00013575326,"MEAN_MOTION_DOT":3.19e-6,"MEAN_MOTION_DDOT":0},{"OBJECT_NAME":"BPA-1 & SL-24 R\/B","OBJECT_ID":"2010-028C","EPOCH":"2026-03-09T15:42:54.807264","MEAN_MOTION":13.72787804,"ECCENTRICITY":0.0374608,"INCLINATION":98.2708,"RA_OF_ASC_NODE":295.8608,"ARG_OF_PERICENTER":152.0491,"MEAN_ANOMALY":278.2461,"EPHEMERIS_TYPE":0,"CLASSIFICATION_TYPE":"U","NORAD_CAT_ID":36600,"ELEMENT_SET_NO":999,"REV_AT_EPOCH":78817,"BSTAR":2.2968e-5,"MEAN_MOTION_DOT":2.0e-8,"MEAN_MOTION_DDOT":0}]
